[{"OBJECT_NAME":"BB4","OBJECT_ID":"2023-133B","EPOCH":"2026-03-09T21:37:27.149088","MEAN_MOTION":14.03089986,"ECCENTRICITY":0.00081277,"INCLINATION":80.9964,"RA_OF_ASC_NODE":101.1751,"ARG_OF_PERICENTER":265.8023,"MEAN_ANOMALY":94.2214,"EPHEMERIS_TYPE":0,"CLASSIFICATION_TYPE":"U","NORAD_CAT_ID":57757,"ELEMENT_SET_NO":999,"REV_AT_EPOCH":12736,"BSTAR":0.00015013184,"MEAN_MOTION_DOT":2.45e-6,"MEAN_MOTION_DDOT":0},{"OBJECT_NAME":"CZ-6A DEB","OBJECT_ID":"2022-151AGE","EPOCH":"2026-03-09T08:55:40.586592","MEAN_MOTION":13.94788769,"ECCENTRICITY":0.01378778,"INCLINATION":98.891,"RA_OF_ASC_NODE":40.1234,"ARG_OF_PERICENTER":11.0032,"MEAN_ANOMALY":349.4094,"EPHEMERIS_TYPE":0,"CLASSIFICATION_TYPE":"U","NORAD_CAT_ID":56654,"ELEMENT_SET_NO":999,"REV_AT_EPOCH":14656,"BSTAR":0.00055702106,"MEAN_MOTION_DOT":7.66e-6,"MEAN_MOTION_DDOT":0}]
